NORAD_CAT_ID,OBJECT_NAME,OBJECT_TYPE,EPOCH,MEAN_MOTION,ECCENTRICITY,INCLINATION,RA_OF_ASC_NODE,ARG_OF_PERICENTER,MEAN_ANOMALY,BSTAR,MEAN_MOTION_DOT,MEAN_MOTION_DDOT,TLE_LINE0,TLE_LINE1,TLE_LINE2,SEMIMAJOR_AXIS,PERIOD,APOGEE,PERIGEE,DECAYED
51883.0,STARLINK-3576,PAYLOAD,2024-06-14 17:28:42,15.08835976,0.000129,53.2189,320.7801,92.9693,267.1447,7.9862e-05,9.83e-06,0.0,0 STARLINK-3576,1 51883U 22022AH  24166.72827296  .00000983  00000-0  79862-4 0  9991,2 51883  53.2189 320.7801 0001290  92.9693 267.1447 15.08835976127683,6917.893,95.438,540.65,538.865,0.0
51883.0,STARLINK-3576,PAYLOAD,2024-06-15 14:08:43,15.08835907,0.0001912,53.22,316.9169,108.3304,251.7896,6.007e-05,6.68e-06,0.0,0 STARLINK-3576,1 51883U 22022AH  24167.58939519  .00000668  00000-0  60070-4 0  9999,2 51883  53.2200 316.9169 0001912 108.3304 251.7896 15.08835907127819,6917.893,95.438,541.081,538.435,0.0
51883.0,STARLINK-3576,PAYLOAD,2024-06-15 18:54:52,15.08839943,0.0001522,53.2202,316.0208,96.2192,263.8974,6.6179e-05,7.65e-06,0.0,0 STARLINK-3576,1 51883U 22022AH  24167.78811327  .00000765  00000-0  66179-4 0  9991,2 51883  53.2202 316.0208 0001522  96.2192 263.8974 15.08839943127841,6917.881,95.438,540.798,538.693,0.0
51883.0,STARLINK-3576,PAYLOAD,2024-06-16 13:59:30,15.08834462,0.0001562,53.2209,312.4542,95.051,265.0661,7.8726e-05,9.65e-06,0.0,0 STARLINK-3576,1 51883U 22022AH  24168.58299700  .00000965  00000-0  78726-4 0  9998,2 51883  53.2209 312.4542 0001562  95.0510 265.0661 15.08834462127965,6917.897,95.438,540.843,538.682,0.0
51883.0,STARLINK-3576,PAYLOAD,2024-06-16 18:45:40,15.08840139,0.0001354,53.2193,311.5588,86.8301,273.2846,7.3913e-05,8.89e-06,0.0,0 STARLINK-3576,1 51883U 22022AH  24168.78171343  .00000889  00000-0  73913-4 0  9990,2 51883  53.2193 311.5588 0001354  86.8301 273.2846 15.08840139127999,6917.88,95.438,540.682,538.808,0.0
51883.0,STARLINK-3576,PAYLOAD,2024-06-17 09:04:07,15.08845148,0.0001458,53.2192,308.8822,86.4919,273.624,0.0002144,3.126e-05,0.0,0 STARLINK-3576,1 51883U 22022AH  24169.37786937  .00003126  00000-0  21440-3 0  9991,2 51883  53.2192 308.8822 0001458  86.4919 273.6240 15.08845148128082,6917.865,95.437,540.738,538.721,0.0
51883.0,STARLINK-3576,PAYLOAD,2024-06-18 02:33:22,15.08846132,0.0001343,53.2181,305.6113,88.6422,271.4724,0.00011367,1.522e-05,0.0,0 STARLINK-3576,1 51883U 22022AH  24170.10650759  .00001522  00000-0  11367-3 0  9991,2 51883  53.2181 305.6113 0001343  88.6422 271.4724 15.08846132128193,6917.862,95.437,540.656,538.798,0.0
51883.0,STARLINK-3576,PAYLOAD,2024-06-18 13:41:04,15.08835885,0.0001407,53.2181,303.5306,90.5016,269.6137,7.8443e-05,9.61e-06,0.0,0 STARLINK-3576,1 51883U 22022AH  24170.57019376  .00000961  00000-0  78443-4 0  9991,2 51883  53.2181 303.5306 0001407  90.5016 269.6137 15.08835885128264,6917.893,95.438,540.731,538.785,0.0
51883.0,STARLINK-3576,PAYLOAD,2024-06-18 15:16:27,15.08836402,0.0001291,53.2173,303.2333,93.3845,266.7294,9.045e-05,1.152e-05,0.0,0 STARLINK-3576,1 51883U 22022AH  24170.63643321  .00001152  00000-0  90450-4 0  9996,2 51883  53.2173 303.2333 0001291  93.3845 266.7294 15.08836402128273,6917.891,95.438,540.649,538.863,0.0
51883.0,STARLINK-3576,PAYLOAD,2024-06-19 02:24:09,15.08849458,0.0001369,53.219,301.1523,94.6569,265.4579,0.00011685,1.573e-05,0.0,0 STARLINK-3576,1 51883U 22022AH  24171.10010422  .00001573  00000-0  11685-3 0  9998,2 51883  53.2190 301.1523 0001369  94.6569 265.4579 15.08849458128348,6917.851,95.437,540.664,538.769,0.0
51883.0,STARLINK-3576,PAYLOAD,2024-06-19 13:31:51,15.08836156,0.0001552,53.2185,299.0685,110.1129,250.003,-9.5113e-07,-3.03e-06,0.0,0 STARLINK-3576,1 51883U 22022AH  24171.56379479 -.00000303  00000-0 -95113-6 0  9991,2 51883  53.2185 299.0685 0001552 110.1129 250.0030 15.08836156128417,6917.892,95.438,540.831,538.683,0.0
51883.0,STARLINK-3576,PAYLOAD,2024-06-19 15:07:15,15.08834653,0.0001517,53.2181,298.7717,103.3059,256.8102,-5.1805e-06,-3.7e-06,0.0,0 STARLINK-3576,1 51883U 22022AH  24171.63003601 -.00000370  00000-0 -51805-5 0  9993,2 51883  53.2181 298.7717 0001517 103.3059 256.8102 15.08834653128427,6917.897,95.438,540.811,538.712,0.0
51883.0,STARLINK-3576,PAYLOAD,2024-06-19 18:18:01,15.08835838,0.000144,53.2191,298.1767,104.4777,255.6375,-6.3372e-06,-3.89e-06,0.0,0 STARLINK-3576,1 51883U 22022AH  24171.76251558 -.00000389  00000-0 -63372-5 0  9995,2 51883  53.2191 298.1767 0001440 104.4777 255.6375 15.08835838128448,6917.893,95.438,540.754,538.762,0.0
51883.0,STARLINK-3576,PAYLOAD,2024-06-20 13:22:39,15.08835368,0.0001377,53.2193,294.6083,104.3644,255.7501,6.5513e-05,7.55e-06,0.0,0 STARLINK-3576,1 51883U 22022AH  24172.55739650  .00000755  00000-0  65513-4 0  9990,2 51883  53.2193 294.6083 0001377 104.3644 255.7501 15.08835368128566,6917.895,95.438,540.712,538.807,0.0
51883.0,STARLINK-3576,PAYLOAD,2024-06-20 18:08:48,15.08838383,0.0001313,53.2203,293.7173,101.5932,258.5208,1.4034e-05,-6.5e-07,0.0,0 STARLINK-3576,1 51883U 22022AH  24172.75611669 -.00000065  00000-0  14034-4 0  9998,2 51883  53.2203 293.7173 0001313 101.5932 258.5208 15.08838383128595,6917.885,95.438,540.659,538.842,0.0
51883.0,STARLINK-3576,PAYLOAD,2024-06-21 13:13:26,15.0883384,0.0001338,53.2192,290.149,104.3376,255.7765,0.00014744,2.059e-05,0.0,0 STARLINK-3576,1 51883U 22022AH  24173.55099993  .00002059  00000-0  14744-3 0  9998,2 51883  53.2192 290.1490 0001338 104.3376 255.7765 15.08833840128719,6917.899,95.438,540.69,538.839,0.0
51883.0,STARLINK-3576,PAYLOAD,2024-06-21 14:48:49,15.08836741,0.0001185,53.2185,289.8514,99.9101,260.2025,0.00011639,1.565e-05,0.0,0 STARLINK-3576,1 51883U 22022AH  24173.61723903  .00001565  00000-0  11639-3 0  9991,2 51883  53.2185 289.8514 0001185  99.9101 260.2025 15.08836741128722,6917.89,95.438,540.575,538.936,0.0
51883.0,STARLINK-3576,PAYLOAD,2024-06-22 11:28:50,15.08836707,0.0001221,53.2186,285.9862,99.9567,260.1563,0.00010111,1.322e-05,0.0,0 STARLINK-3576,1 51883U 22022AH  24174.47836184  .00001322  00000-0  10111-3 0  9997,2 51883  53.2186 285.9862 0001221  99.9567 260.1563 15.08836707128855,6917.89,95.438,540.6,538.911,0.0
51883.0,STARLINK-3576,PAYLOAD,2024-06-22 16:14:59,15.08837389,0.000121,53.2185,285.0942,98.6155,261.4974,0.00010118,1.323e-05,0.0,0 STARLINK-3576,1 51883U 22022AH  24174.67708224  .00001323  00000-0  10118-3 0  9990,2 51883  53.2185 285.0942 0001210  98.6155 261.4974 15.08837389128881,6917.888,95.438,540.59,538.916,0.0
51883.0,STARLINK-3576,PAYLOAD,2024-06-23 12:55:00,15.08841603,0.0001188,53.2181,281.2282,96.4747,263.6381,0.00011557,1.552e-05,0.0,0 STARLINK-3576,1 51883U 22022AH  24175.53819971  .00001552  00000-0  11557-3 0  9990,2 51883  53.2181 281.2282 0001188  96.4747 263.6381 15.08841603129015,6917.875,95.437,540.562,538.919,0.0
51883.0,STARLINK-3576,PAYLOAD,2024-06-23 14:30:23,15.08844351,0.0001155,53.2182,280.9312,91.7531,268.3593,0.00013786,1.907e-05,0.0,0 STARLINK-3576,1 51883U 22022AH  24175.60443769  .00001907  00000-0  13786-3 0  9996,2 51883  53.2182 280.9312 0001155  91.7531 268.3593 15.08844351129020,6917.867,95.437,540.531,538.933,0.0
51883.0,STARLINK-3576,PAYLOAD,2024-06-23 16:05:46,15.08844898,0.0001159,53.2182,280.6338,91.7701,268.3424,0.00014196,1.972e-05,0.0,0 STARLINK-3576,1 51883U 22022AH  24175.67067730  .00001972  00000-0  14196-3 0  9991,2 51883  53.2182 280.6338 0001159  91.7701 268.3424 15.08844898129038,6917.865,95.437,540.532,538.929,0.0
51883.0,STARLINK-3576,PAYLOAD,2024-06-24 14:21:10,15.08845571,0.0001185,53.2182,276.4696,90.9925,269.1203,0.00011669,1.57e-05,0.0,0 STARLINK-3576,1 51883U 22022AH  24176.59803616  .00001570  00000-0  11669-3 0  9990,2 51883  53.2182 276.4696 0001185  90.9925 269.1203 15.08845571129174,6917.863,95.437,540.548,538.909,0.0
51883.0,STARLINK-3576,PAYLOAD,2024-06-25 12:36:34,15.08841736,0.0001372,53.2189,272.307,79.5002,280.6144,1.4677e-05,-5.4e-07,0.0,0 STARLINK-3576,1 51883U 22022AH  24177.52540067 -.00000054  00000-0  14677-4 0  9992,2 51883  53.2189 272.3070 0001372  79.5002 280.6144 15.08841736129316,6917.875,95.437,540.689,538.791,0.0
51883.0,STARLINK-3576,PAYLOAD,2024-06-25 14:11:57,15.08842495,0.0001385,53.219,272.0098,79.7723,280.3425,1.8327e-05,4e-08,0.0,0 STARLINK-3576,1 51883U 22022AH  24177.59163982  .00000004  00000-0  18327-4 0  9996,2 51883  53.2190 272.0098 0001385  79.7723 280.3425 15.08842495129324,6917.873,95.437,540.696,538.78,0.0
51883.0,STARLINK-3576,PAYLOAD,2024-06-26 10:51:57,15.08846363,0.0001269,53.2183,268.1435,93.8732,266.2405,7.8135e-05,9.56e-06,0.0,0 STARLINK-3576,1 51883U 22022AH  24178.45275258  .00000956  00000-0  78135-4 0  9991,2 51883  53.2183 268.1435 0001269  93.8732 266.2405 15.08846363129458,6917.861,95.437,540.604,538.848,0.0
51883.0,STARLINK-3576,PAYLOAD,2024-06-27 12:18:08,15.08837098,0.0001278,53.2177,263.3882,88.1986,271.9152,6.65e-05,7.71e-06,0.0,0 STARLINK-3576,1 51883U 22022AH  24179.51259801  .00000771  00000-0  66500-4 0  9993,2 51883  53.2177 263.3882 0001278  88.1986 271.9152 15.08837098129617,6917.889,95.438,540.638,538.87,0.0
51883.0,STARLINK-3576,PAYLOAD,2024-06-28 12:08:55,15.0884143,0.0001212,53.2168,258.926,89.2008,270.9123,8.3863e-05,1.047e-05,0.0,0 STARLINK-3576,1 51883U 22022AH  24180.50619552  .00001047  00000-0  83863-4 0  9995,2 51883  53.2168 258.9260 0001212  89.2008 270.9123 15.08841430129760,6917.876,95.437,540.579,538.903,0.0
51883.0,STARLINK-3576,PAYLOAD,2024-06-28 16:55:04,15.08848868,0.0001227,53.2171,258.0352,93.5114,266.6019,0.00013913,1.928e-05,0.0,0 STARLINK-3576,1 51883U 22022AH  24180.70490937  .00001928  00000-0  13913-3 0  9997,2 51883  53.2171 258.0352 0001227  93.5114 266.6019 15.08848868129790,6917.853,95.437,540.567,538.869,0.0
51883.0,STARLINK-3576,PAYLOAD,2024-06-29 04:02:47,15.08834,0.0001769,53.2165,255.952,92.8565,267.263,6.3591e-05,7.24e-06,0.0,0 STARLINK-3576,1 51883U 22022AH  24181.16860239  .00000724  00000-0  63591-4 0  9995,2 51883  53.2165 255.9520 0001769  92.8565 267.2630 15.08834000129866,6917.899,95.438,540.988,538.54,0.0
